[{"OBJECT_NAME":"SZ-21 MODULE","OBJECT_ID":"2025-246C","EPOCH":"2026-03-05T19:22:19.378272","MEAN_MOTION":15.68194204,"ECCENTRICITY":0.00014276,"INCLINATION":41.4734,"RA_OF_ASC_NODE":227.2544,"ARG_OF_PERICENTER":292.143,"MEAN_ANOMALY":67.926,"EPHEMERIS_TYPE":0,"CLASSIFICATION_TYPE":"U","NORAD_CAT_ID":66515,"ELEMENT_SET_NO":999,"REV_AT_EPOCH":1746,"BSTAR":0.00036031689,"MEAN_MOTION_DOT":0.0004131,"MEAN_MOTION_DDOT":0},{"OBJECT_NAME":"SHENZHOU-22","OBJECT_ID":"2025-272A","EPOCH":"2026-03-05T22:33:18.119520","MEAN_MOTION":15.60447182,"ECCENTRICITY":0.00068802,"INCLINATION":41.4658,"RA_OF_ASC_NODE":230.9734,"ARG_OF_PERICENTER":250.1024,"MEAN_ANOMALY":109.9073,"EPHEMERIS_TYPE":0,"CLASSIFICATION_TYPE":"U","NORAD_CAT_ID":66645,"ELEMENT_SET_NO":999,"REV_AT_EPOCH":26752,"BSTAR":0.00022289437,"MEAN_MOTION_DOT":0.00018582,"MEAN_MOTION_DDOT":0},{"OBJECT_NAME":"SOYUZ-MS 28","OBJECT_ID":"2025-275A","EPOCH":"2026-03-06T05:19:41.493792","MEAN_MOTION":15.48470661,"ECCENTRICITY":0.00081363,"INCLINATION":51.6317,"RA_OF_ASC_NODE":89.5003,"ARG_OF_PERICENTER":162.2758,"MEAN_ANOMALY":197.8515,"EPHEMERIS_TYPE":0,"CLASSIFICATION_TYPE":"U","NORAD_CAT_ID":66664,"ELEMENT_SET_NO":999,"REV_AT_EPOCH":55452,"BSTAR":0.00015844115,"MEAN_MOTION_DOT":8.136e-5,"MEAN_MOTION_DDOT":0},{"OBJECT_NAME":"DUPLEX","OBJECT_ID":"1998-067XS","EPOCH":"2026-03-06T05:55:09.162912","MEAN_MOTION":15.55952747,"ECCENTRICITY":0.00021576,"INCLINATION":51.6285,"RA_OF_ASC_NODE":86.6685,"ARG_OF_PERICENTER":97.4902,"MEAN_ANOMALY":262.6335,"EPHEMERIS_TYPE":0,"CLASSIFICATION_TYPE":"U","NORAD_CAT_ID":66906,"ELEMENT_SET_NO":999,"REV_AT_EPOCH":1459,"BSTAR":0.00044000497,"MEAN_MOTION_DOT":0.00030778,"MEAN_MOTION_DDOT":0},{"OBJECT_NAME":"ISS OBJECT XT","OBJECT_ID":"1998-067XT","EPOCH":"2026-03-06T06:28:51.010176","MEAN_MOTION":15.6803586,"ECCENTRICITY":0.00046743,"INCLINATION":51.6248,"RA_OF_ASC_NODE":83.0631,"ARG_OF_PERICENTER":56.5604,"MEAN_ANOMALY":303.5839,"EPHEMERIS_TYPE":0,"CLASSIFICATION_TYPE":"U","NORAD_CAT_ID":66907,"ELEMENT_SET_NO":999,"REV_AT_EPOCH":1464,"BSTAR":0.001331197,"MEAN_MOTION_DOT":0.00153072,"MEAN_MOTION_DDOT":0},{"OBJECT_NAME":"ISS OBJECT XU","OBJECT_ID":"1998-067XU","EPOCH":"2026-03-06T07:58:22.188864","MEAN_MOTION":15.68155385,"ECCENTRICITY":0.0004715,"INCLINATION":51.6249,"RA_OF_ASC_NODE":82.7244,"ARG_OF_PERICENTER":58.9313,"MEAN_ANOMALY":301.2145,"EPHEMERIS_TYPE":0,"CLASSIFICATION_TYPE":"U","NORAD_CAT_ID":66908,"ELEMENT_SET_NO":999,"REV_AT_EPOCH":1465,"BSTAR":0.0013221278,"MEAN_MOTION_DOT":0.00152767,"MEAN_MOTION_DDOT":0},{"OBJECT_NAME":"SILVERSAT","OBJECT_ID":"1998-067XV","EPOCH":"2026-03-06T06:36:55.814400","MEAN_MOTION":15.7073424,"ECCENTRICITY":0.00055309,"INCLINATION":51.6242,"RA_OF_ASC_NODE":82.3461,"ARG_OF_PERICENTER":54.5981,"MEAN_ANOMALY":305.5533,"EPHEMERIS_TYPE":0,"CLASSIFICATION_TYPE":"U","NORAD_CAT_ID":66909,"ELEMENT_SET_NO":999,"REV_AT_EPOCH":1465,"BSTAR":0.0014660588,"MEAN_MOTION_DOT":0.00189452,"MEAN_MOTION_DDOT":0},{"OBJECT_NAME":"ISS OBJECT XW","OBJECT_ID":"1998-067XW","EPOCH":"2026-03-06T06:19:34.011840","MEAN_MOTION":15.67476946,"ECCENTRICITY":0.00050274,"INCLINATION":51.6239,"RA_OF_ASC_NODE":83.0117,"ARG_OF_PERICENTER":65.9559,"MEAN_ANOMALY":294.1963,"EPHEMERIS_TYPE":0,"CLASSIFICATION_TYPE":"U","NORAD_CAT_ID":66910,"ELEMENT_SET_NO":999,"REV_AT_EPOCH":1464,"BSTAR":0.0011875448,"MEAN_MOTION_DOT":0.00133096,"MEAN_MOTION_DDOT":0},{"OBJECT_NAME":"ISS OBJECT XX","OBJECT_ID":"1998-067XX","EPOCH":"2026-03-06T06:41:50.155008","MEAN_MOTION":15.73472479,"ECCENTRICITY":0.00070071,"INCLINATION":51.6211,"RA_OF_ASC_NODE":81.6018,"ARG_OF_PERICENTER":62.4231,"MEAN_ANOMALY":297.7478,"EPHEMERIS_TYPE":0,"CLASSIFICATION_TYPE":"U","NORAD_CAT_ID":66911,"ELEMENT_SET_NO":999,"REV_AT_EPOCH":1465,"BSTAR":0.0016237106,"MEAN_MOTION_DOT":0.00237204,"MEAN_MOTION_DDOT":0},{"OBJECT_NAME":"ISS OBJECT XY","OBJECT_ID":"1998-067XY","EPOCH":"2026-03-06T06:10:52.212000","MEAN_MOTION":15.62944629,"ECCENTRICITY":0.00030319,"INCLINATION":51.6266,"RA_OF_ASC_NODE":84.4872,"ARG_OF_PERICENTER":69.1167,"MEAN_ANOMALY":291.0151,"EPHEMERIS_TYPE":0,"CLASSIFICATION_TYPE":"U","NORAD_CAT_ID":66912,"ELEMENT_SET_NO":999,"REV_AT_EPOCH":1461,"BSTAR":0.0009732072,"MEAN_MOTION_DOT":0.00090381,"MEAN_MOTION_DDOT":0},{"OBJECT_NAME":"ISS OBJECT XZ","OBJECT_ID":"1998-067XZ","EPOCH":"2026-03-06T05:59:43.261728","MEAN_MOTION":15.51506562,"ECCENTRICITY":0.00094044,"INCLINATION":51.6308,"RA_OF_ASC_NODE":88.9378,"ARG_OF_PERICENTER":174.3573,"MEAN_ANOMALY":185.7524,"EPHEMERIS_TYPE":0,"CLASSIFICATION_TYPE":"U","NORAD_CAT_ID":67683,"ELEMENT_SET_NO":999,"REV_AT_EPOCH":425,"BSTAR":0.00065901417,"MEAN_MOTION_DOT":0.00039477,"MEAN_MOTION_DDOT":0},{"OBJECT_NAME":"GXIBA-1","OBJECT_ID":"1998-067YA","EPOCH":"2026-03-06T05:27:54.582048","MEAN_MOTION":15.53679638,"ECCENTRICITY":0.00109875,"INCLINATION":51.6295,"RA_OF_ASC_NODE":88.7906,"ARG_OF_PERICENTER":164.2519,"MEAN_ANOMALY":195.8815,"EPHEMERIS_TYPE":0,"CLASSIFICATION_TYPE":"U","NORAD_CAT_ID":67684,"ELEMENT_SET_NO":999,"REV_AT_EPOCH":425,"BSTAR":0.0011559833,"MEAN_MOTION_DOT":0.00075699,"MEAN_MOTION_DDOT":0},{"OBJECT_NAME":"CORAL","OBJECT_ID":"1998-067YB","EPOCH":"2026-03-06T05:54:25.554240","MEAN_MOTION":15.5182411,"ECCENTRICITY":0.00113231,"INCLINATION":51.6312,"RA_OF_ASC_NODE":88.9138,"ARG_OF_PERICENTER":170.6186,"MEAN_ANOMALY":189.5017,"EPHEMERIS_TYPE":0,"CLASSIFICATION_TYPE":"U","NORAD_CAT_ID":67685,"ELEMENT_SET_NO":999,"REV_AT_EPOCH":425,"BSTAR":0.00070253126,"MEAN_MOTION_DOT":0.00042651,"MEAN_MOTION_DDOT":0},{"OBJECT_NAME":"ISS OBJECT YC","OBJECT_ID":"1998-067YC","EPOCH":"2026-03-06T05:48:04.208832","MEAN_MOTION":15.52288949,"ECCENTRICITY":0.00078092,"INCLINATION":51.6306,"RA_OF_ASC_NODE":88.8853,"ARG_OF_PERICENTER":138.1788,"MEAN_ANOMALY":221.9799,"EPHEMERIS_TYPE":0,"CLASSIFICATION_TYPE":"U","NORAD_CAT_ID":67686,"ELEMENT_SET_NO":999,"REV_AT_EPOCH":425,"BSTAR":0.00081032975,"MEAN_MOTION_DOT":0.00050083,"MEAN_MOTION_DDOT":0},{"OBJECT_NAME":"LEOPARD","OBJECT_ID":"1998-067YD","EPOCH":"2026-03-06T05:56:53.650752","MEAN_MOTION":15.51667616,"ECCENTRICITY":0.00077913,"INCLINATION":51.6309,"RA_OF_ASC_NODE":88.9257,"ARG_OF_PERICENTER":142.6903,"MEAN_ANOMALY":217.4629,"EPHEMERIS_TYPE":0,"CLASSIFICATION_TYPE":"U","NORAD_CAT_ID":67687,"ELEMENT_SET_NO":999,"REV_AT_EPOCH":417,"BSTAR":0.00070896947,"MEAN_MOTION_DOT":0.00042747,"MEAN_MOTION_DDOT":0},{"OBJECT_NAME":"ISS OBJECT YE","OBJECT_ID":"1998-067YE","EPOCH":"2026-03-06T05:50:55.071744","MEAN_MOTION":15.52071816,"ECCENTRICITY":0.00077106,"INCLINATION":51.6311,"RA_OF_ASC_NODE":88.8989,"ARG_OF_PERICENTER":138.4184,"MEAN_ANOMALY":221.7393,"EPHEMERIS_TYPE":0,"CLASSIFICATION_TYPE":"U","NORAD_CAT_ID":67688,"ELEMENT_SET_NO":999,"REV_AT_EPOCH":417,"BSTAR":0.00074592942,"MEAN_MOTION_DOT":0.00045678,"MEAN_MOTION_DDOT":0}]
